UNKNOWN                 
1 81052U          26035.58850631  .00006397  00000+0  16739-2 0  9990
2 81052  65.7690 253.2830 0562906 281.9235  71.9278 13.83809404607762
UNKNOWN                 
1 81069U          26040.21878376  .00003350  00000+0  44224-2 0  9996
2 81069 100.3845 309.8948 0064277 262.8046  96.5781 13.60983622523884
UNKNOWN                 
1 81078U          26040.34192005  .00000234  00000+0  81756-2 0  9997
2 81078  65.1106 166.3972 0190618 350.7664  38.1637 11.22469214501203
UNKNOWN                 
1 81111U          26043.85134350  .00017468  00000+0  35633-2 0  9993
2 81111  62.8983 320.8428 3850229 359.6539   0.1760  7.57833149276642
UNKNOWN                 
1 81123U          26040.05002292  .00001096  00000+0  10702-2 0  9994
2 81123  99.9669 129.9248 0003151 246.1367 113.9454 13.81746061614330
UNKNOWN                 
1 81134U          26044.31245760  .00000215  00000+0  76217-3 0  9994
2 81134  90.2510   5.4354 0023777 223.4967 136.4276 12.93008126470693
UNKNOWN                 
1 81161U          26016.31042138  .00000316  00000+0  37583-3 0  9992
2 81161 100.4168 226.5127 0062179 196.2360 163.6795 13.75682856560881
UNKNOWN                 
1 81219U          26041.08088562  .00000607  00000+0  55100-3 0  9997
2 81219  82.9285 321.5699 0023000  48.8145 311.4994 13.81855925615715
UNKNOWN                 
1 81228U          26037.96373021  .00009311  00000+0  27935-2 0  9991
2 81228  70.5219 150.4868 0065441 279.0047  80.3683 14.41716901634193
UNKNOWN                 
1 81254U          26034.13540153  .00003851  00000+0  25051-2 0  9998
2 81254 100.3808 108.4103 0072343 290.6335  68.7078 14.01943944620234
UNKNOWN                 
1 81279U          26041.38608145  .00001336  00000+0  52137-3 0  9998
2 81279  98.1201 101.0119 0206853 209.9535 148.9678 14.20123067471067
UNKNOWN                 
1 81301U          26032.14734417  .00000329  00000+0  39768-3 0  9996
2 81301  66.7579 175.4712 0090906 200.1896 340.7495 13.76743071613294
UNKNOWN                 
1 81311U          26042.12814746  .00000617  00000+0  13537-3 0  9996
2 81311  98.7218 107.2289 0130091 300.2955  88.5152 14.56643475648381
UNKNOWN                 
1 81317U          26042.45516573  .00000200  00000+0  43786-3 0  9992
2 81317  67.1375  42.9387 0214289 351.4357 163.2766 13.38039361596758
UNKNOWN                 
1 81323U          26035.93048394  .00017936  00000+0  22424-2 0  9994
2 81323  65.7483 236.9737 0339208 285.0241  71.3555 14.49245811120903
UNKNOWN                 
1 81329U          26036.97983144  .00007832  00000+0  27507-2 0  9997
2 81329  65.8278   3.8098 0834218   4.8842 355.9719 13.22477589585387
UNKNOWN                 
1 81343U          26043.36946171  .00008154  00000+0  57409-3 0  9996
2 81343  85.8761 166.4054 0009218  48.9416 311.2613 15.04869173463581
UNKNOWN                 
1 81359U          26040.06803310  .00000490  00000+0  52443-3 0  9992
2 81359  66.7967 272.3773 0119965 285.8720  72.9157 13.78937766613528
UNKNOWN                 
1 81366U          26035.16836255  .00002052  00000+0  74787-3 0  9990
2 81366  65.8856 305.5749 0711188  55.5684 311.0505 13.45298664 73144
UNKNOWN                 
1 81371U          26037.22961727  .00006770  00000+0  10753-2 0  9991
2 81371  98.8092 143.1192 0069275 190.8943 169.0765 14.70865336649996
UNKNOWN                 
1 81386U          26029.88772037  .00006812  00000+0  22178-2 0  9995
2 81386  71.0468 252.0345 0086507   7.9389 352.3091 14.36919065631150
UNKNOWN                 
1 81390U          26018.98013495 -.00000075  00000+0 -19210-3 0  9996
2 81390 103.1077 275.1799 0169605  77.6089 284.3892 12.35626022504695
UNKNOWN                 
1 81392U          26027.24031549  .00004787  00000+0  44699-2 0  9997
2 81392 100.4023  25.0693 0041455 279.1497 148.4912 13.82040403608466
UNKNOWN                 
1 81427U          26035.12138342  .00000710  00000+0  43667-3 0  9998
2 81427  98.7448 280.5344 0083050 248.3094 110.9216 14.07056311559272
UNKNOWN                 
1 81438U          26036.39458304  .00003322  00000+0  48396-2 0  9998
2 81438 100.3205 275.4666 0056763 304.9355  54.6455 13.55054910599341
UNKNOWN                 
1 81439U          26041.37299231 -.00000054  00000+0 -49753-5 0  9997
2 81439  67.1617  26.4857 0597315 166.7087 195.0479 12.62639845269426
UNKNOWN                 
1 81449U          26042.46622230  .00122848  00000+0  70275-2 0  9992
2 81449  66.7927 173.4832 0020828  45.4867 314.7971 15.11773868642693
UNKNOWN                 
1 81478U          26043.73699278  .00002838  00000+0  10222-2 0  9993
2 81478  98.9516 322.2569 0144132 177.9941 210.3380 14.28881146631796
UNKNOWN                 
1 81488U          26043.49656575  .00000104  00000+0  21253-3 0  9991
2 81488  99.9966 282.0666 0044086 206.0319 274.8557 13.56541099605004
UNKNOWN                 
1 81497U          26044.23480388  .00003147  00000+0  28341-2 0  9995
2 81497 100.2981 309.8766 0028717 216.8517 295.6573 13.84693383224942
UNKNOWN                 
1 81499U          26043.56813384  .00002202  00000+0  60566-3 0  9995
2 81499  74.0486 105.5591 0003101 259.3491 100.7319 14.47549666491362
UNKNOWN                 
1 81535U          26043.01890317  .00000934  00000+0  39909-3 0  9994
2 81535  98.1946 125.2170 0233855 331.5163  27.3392 14.13593716396056
UNKNOWN                 
1 81536U          26041.88464306  .00000481  00000+0  32019-2 0  9994
2 81536 101.9656 268.6725 0018597 183.5662 247.3609 12.55948233559361
UNKNOWN                 
1 81537U          26041.18127128  .00000386  00000+0  25152-3 0  9991
2 81537  71.0418 346.2680 0074846  61.9572 298.9091 14.07141806628821
UNKNOWN                 
1 81599U          26044.26367447  .00000321  00000+0  67665-3 0  9995
2 81599  67.2952 145.7121 0245664  38.2328 351.2090 13.31538155593405
UNKNOWN                 
1 81605U          26040.01520044 -.00001203  00000+0 -44637-2 0  9991
2 81605  56.4387  48.4562 0164692 219.3516 139.5348 12.81528639193673
UNKNOWN                 
1 81614U          26043.93365606  .00006053  00000+0  37310-1 0  9991
2 81614 101.8307  42.8677 0364353  29.8190 332.3107 12.37892411545673
UNKNOWN                 
1 81615U          26044.02623603  .00002462  00000+0  90165-3 0  9996
2 81615  65.8274 276.9625 0767861 107.4405 261.2019 13.34325183591175
UNKNOWN                 
1 81617U          26043.92059774  .00000345  00000+0  22991-2 0  9997
2 81617 101.2649 220.6723 0033932 123.6044 236.8278 12.57586279560920
UNKNOWN                 
1 81624U          26036.22013070  .00008562  00000+0  13333-2 0  9998
2 81624  66.9764  16.2944 0065777 194.6820 165.2394 14.71926629647722
UNKNOWN                 
1 81640U          26040.32465905  .00000594  00000+0  59937-3 0  9998
2 81640  65.8280  12.1602 0977663  53.7289 315.0085 12.57264039517446
UNKNOWN                 
1 81652U          26043.23817363  .00000355  00000+0  48207-3 0  9996
2 81652 102.1458 309.4891 0363082 222.4021 295.2853 13.44480510586917
UNKNOWN                 
1 81667U          26043.62394110  .00002219  00000+0  59873-3 0  9997
2 81667  74.0446 280.7253 0015335 197.7102 162.3525 14.48398766465607
UNKNOWN                 
1 81674U          26035.53700502  .00000896  00000+0  55035-3 0  9997
2 81674  66.8209 228.7911 0026829 195.9151 195.3195 14.10064697621300
UNKNOWN                 
1 81683U          26044.21448862  .00003529  00000+0  76462-3 0  9993
2 81683  81.2127 229.4602 0024029 106.0429 254.3417 14.57856658644963
UNKNOWN                 
1 81693U          26033.60328402  .00000950  00000+0  71303-2 0  9995
2 81693 101.0975  94.3495 0365424 344.6978  14.3266 12.25967259974124
UNKNOWN                 
1 81745U          26039.28286455  .00002174  00000+0  69616-3 0  9999
2 81745  70.9995 261.5394 0003672 149.7279 210.4070 14.40678835638033
UNKNOWN                 
1 81775U          26043.79673292  .00007038  00000+0  21418-2 0  9993
2 81775  82.9198 172.8214 0014659  60.9170 299.3489 14.41901280634210
UNKNOWN                 
1 81779U          26043.55631041 -.00008878  00000+0 -54275+0 0  9996
2 81779  54.4940 116.9761 1496272 108.5007 268.3796  9.33986436486092
UNKNOWN                 
1 81792U          26036.12073478  .00002293  00000+0  82072-3 0  9993
2 81792  65.8323 333.6358 0895407 258.4387  91.4916 13.11228588 87168
UNKNOWN                 
1 81812U          26044.21802957  .00005574  00000+0  38996-1 0  9996
2 81812 103.8102 328.9095 0246039 126.0995 236.3110 12.37877786548299
UNKNOWN                 
1 81816U          26044.64391467  .00001924  00000+0  14426-2 0  9994
2 81816  66.2386 139.2733 0175557 211.6646 147.3774 13.89674136618085
UNKNOWN                 
1 81819U          26043.23736456  .00001017  00000+0  71863-2 0  9993
2 81819 102.1618 146.2521 0030317 358.8521   1.2472 12.47800499555684
UNKNOWN                 
1 81824U          26043.75745689  .00005120  00000+0  17609-2 0  9991
2 81824  65.8418 167.8740 0046011 301.9335  57.7288 14.36206976633492
UNKNOWN                 
1 81833U          26037.33808237  .00000253  00000+0  89180-3 0  9993
2 81833  90.2457   4.1228 0025038 237.7419 122.1273 12.93750280459700
UNKNOWN                 
1 81838U          26026.69871619  .00010833  00000+0  23584-2 0  9999
2 81838  67.7595 148.7226 0041952 323.4616 103.9601 14.57662167639884
UNKNOWN                 
1 81844U          26043.48311478  .00006515  00000+0  23014-2 0  9994
2 81844  82.9077 231.9147 0060976 323.5321  36.1721 14.33531972631732
UNKNOWN                 
1 81845U          26040.48194302  .00003786  00000+0  41411-3 0  9996
2 81845  97.6768 230.3923 0088339 111.3986 279.6775 14.85561083658242
UNKNOWN                 
1 81864U          26033.13071996  .00002440  00000+0  94023-3 0  9997
2 81864  65.6733 306.7363 0766542 350.9348   7.8479 13.32666652557685
